SPACEMOBILE-006         
1 67232U 25309A   26066.73541206  .00002882  00000+0  15532-3 0  9995
2 67232  52.9943  76.1252 0011023 174.8069 185.3040 15.18002423 11187
